CCSDS_OMM_VERS = 2.0
CREATION_DATE  = 
ORIGINATOR     = 

OBJECT_NAME    = STARLINK-36993
OBJECT_ID      = 2026-039J
CENTER_NAME    = EARTH
REF_FRAME      = TEME
TIME_SYSTEM    = UTC
MEAN_ELEMENT_THEORY = SGP/SGP4

EPOCH          = 2026-03-03T14:00:03.000384
MEAN_MOTION    = 16.02402663
ECCENTRICITY   = .0001773
INCLINATION    = 42.9991
RA_OF_ASC_NODE = 92.9580
ARG_OF_PERICENTER = 278.3645
MEAN_ANOMALY   = 350.8986

EPHEMERIS_TYPE = 0
CLASSIFICATION_TYPE = U
NORAD_CAT_ID   = 67994
ELEMENT_SET_NO = 999
REV_AT_EPOCH   = 189
BSTAR          = -.19321E-2
MEAN_MOTION_DOT = -.1183208E-1
MEAN_MOTION_DDOT = .45765E-3

CCSDS_OMM_VERS = 2.0
CREATION_DATE  = 
ORIGINATOR     = 

OBJECT_NAME    = STARLINK-36968
OBJECT_ID      = 2026-039K
CENTER_NAME    = EARTH
REF_FRAME      = TEME
TIME_SYSTEM    = UTC
MEAN_ELEMENT_THEORY = SGP/SGP4

EPOCH          = 2026-03-03T14:00:03.000384
MEAN_MOTION    = 16.02714179
ECCENTRICITY   = .0001796
INCLINATION    = 42.9991
RA_OF_ASC_NODE = 92.9514
ARG_OF_PERICENTER = 278.7541
MEAN_ANOMALY   = 353.1164

EPHEMERIS_TYPE = 0
CLASSIFICATION_TYPE = U
NORAD_CAT_ID   = 67995
ELEMENT_SET_NO = 999
REV_AT_EPOCH   = 189
BSTAR          = -.1902E-2
MEAN_MOTION_DOT = -.1186525E-1
MEAN_MOTION_DDOT = .46159E-3

CCSDS_OMM_VERS = 2.0
CREATION_DATE  = 
ORIGINATOR     = 

OBJECT_NAME    = STARLINK-36979
OBJECT_ID      = 2026-039L
CENTER_NAME    = EARTH
REF_FRAME      = TEME
TIME_SYSTEM    = UTC
MEAN_ELEMENT_THEORY = SGP/SGP4

EPOCH          = 2026-03-03T14:00:03.000384
MEAN_MOTION    = 16.02594300
ECCENTRICITY   = .0001756
INCLINATION    = 42.9990
RA_OF_ASC_NODE = 92.9531
ARG_OF_PERICENTER = 278.5554
MEAN_ANOMALY   = 352.5876

EPHEMERIS_TYPE = 0
CLASSIFICATION_TYPE = U
NORAD_CAT_ID   = 67996
ELEMENT_SET_NO = 999
REV_AT_EPOCH   = 189
BSTAR          = -.19212E-2
MEAN_MOTION_DOT = -.1189905E-1
MEAN_MOTION_DDOT = .46338E-3

CCSDS_OMM_VERS = 2.0
CREATION_DATE  = 
ORIGINATOR     = 

OBJECT_NAME    = STARLINK-36994
OBJECT_ID      = 2026-039M
CENTER_NAME    = EARTH
REF_FRAME      = TEME
TIME_SYSTEM    = UTC
MEAN_ELEMENT_THEORY = SGP/SGP4

EPOCH          = 2026-03-03T14:00:03.000384
MEAN_MOTION    = 16.02990922
ECCENTRICITY   = .0001789
INCLINATION    = 42.9990
RA_OF_ASC_NODE = 92.9472
ARG_OF_PERICENTER = 278.5694
MEAN_ANOMALY   = 354.8785

EPHEMERIS_TYPE = 0
CLASSIFICATION_TYPE = U
NORAD_CAT_ID   = 67997
ELEMENT_SET_NO = 999
REV_AT_EPOCH   = 189
BSTAR          = -.18605E-2
MEAN_MOTION_DOT = -.1180014E-1
MEAN_MOTION_DDOT = .45839E-3

CCSDS_OMM_VERS = 2.0
CREATION_DATE  = 
ORIGINATOR     = 

OBJECT_NAME    = STARLINK-36988
OBJECT_ID      = 2026-039N
CENTER_NAME    = EARTH
REF_FRAME      = TEME
TIME_SYSTEM    = UTC
MEAN_ELEMENT_THEORY = SGP/SGP4

EPOCH          = 2026-03-03T14:00:03.000384
MEAN_MOTION    = 16.02870609
ECCENTRICITY   = .0001748
INCLINATION    = 42.9991
RA_OF_ASC_NODE = 92.9492
ARG_OF_PERICENTER = 277.7253
MEAN_ANOMALY   = 354.9822

EPHEMERIS_TYPE = 0
CLASSIFICATION_TYPE = U
NORAD_CAT_ID   = 67998
ELEMENT_SET_NO = 999
REV_AT_EPOCH   = 189
BSTAR          = -.1884E-2
MEAN_MOTION_DOT = -.118624E-1
MEAN_MOTION_DDOT = .4622E-3

CCSDS_OMM_VERS = 2.0
CREATION_DATE  = 
ORIGINATOR     = 

OBJECT_NAME    = STARLINK-36926
OBJECT_ID      = 2026-039P
CENTER_NAME    = EARTH
REF_FRAME      = TEME
TIME_SYSTEM    = UTC
MEAN_ELEMENT_THEORY = SGP/SGP4

EPOCH          = 2026-03-03T14:00:03.000384
MEAN_MOTION    = 16.03120618
ECCENTRICITY   = .0001833
INCLINATION    = 42.9991
RA_OF_ASC_NODE = 92.9455
ARG_OF_PERICENTER = 276.2339
MEAN_ANOMALY   = 357.9852

EPHEMERIS_TYPE = 0
CLASSIFICATION_TYPE = U
NORAD_CAT_ID   = 67999
ELEMENT_SET_NO = 999
REV_AT_EPOCH   = 189
BSTAR          = -.18348E-2
MEAN_MOTION_DOT = -.117281E-1
MEAN_MOTION_DDOT = .45395E-3

CCSDS_OMM_VERS = 2.0
CREATION_DATE  = 
ORIGINATOR     = 

OBJECT_NAME    = STARLINK-36931
OBJECT_ID      = 2026-039Q
CENTER_NAME    = EARTH
REF_FRAME      = TEME
TIME_SYSTEM    = UTC
MEAN_ELEMENT_THEORY = SGP/SGP4

EPOCH          = 2026-03-03T14:00:03.000384
MEAN_MOTION    = 16.03207784
ECCENTRICITY   = .0001788
INCLINATION    = 42.9992
RA_OF_ASC_NODE = 92.9440
ARG_OF_PERICENTER = 278.0237
MEAN_ANOMALY   = 356.8308

EPHEMERIS_TYPE = 0
CLASSIFICATION_TYPE = U
NORAD_CAT_ID   = 68000
ELEMENT_SET_NO = 999
REV_AT_EPOCH   = 189
BSTAR          = -.18192E-2
MEAN_MOTION_DOT = -.1168961E-1
MEAN_MOTION_DDOT = .45167E-3

CCSDS_OMM_VERS = 2.0
CREATION_DATE  = 
ORIGINATOR     = 

OBJECT_NAME    = STARLINK-36903
OBJECT_ID      = 2026-039R
CENTER_NAME    = EARTH
REF_FRAME      = TEME
TIME_SYSTEM    = UTC
MEAN_ELEMENT_THEORY = SGP/SGP4

EPOCH          = 2026-03-03T14:00:03.000384
MEAN_MOTION    = 16.03346782
ECCENTRICITY   = .0001768
INCLINATION    = 42.9994
RA_OF_ASC_NODE = 92.9420
ARG_OF_PERICENTER = 278.6409
MEAN_ANOMALY   = 356.9989

EPHEMERIS_TYPE = 0
CLASSIFICATION_TYPE = U
NORAD_CAT_ID   = 68001
ELEMENT_SET_NO = 999
REV_AT_EPOCH   = 189
BSTAR          = -.18002E-2
MEAN_MOTION_DOT = -.1166475E-1
MEAN_MOTION_DDOT = .45063E-3

CCSDS_OMM_VERS = 2.0
CREATION_DATE  = 
ORIGINATOR     = 

OBJECT_NAME    = STARLINK-36898
OBJECT_ID      = 2026-039S
CENTER_NAME    = EARTH
REF_FRAME      = TEME
TIME_SYSTEM    = UTC
MEAN_ELEMENT_THEORY = SGP/SGP4

EPOCH          = 2026-03-03T14:00:03.000384
MEAN_MOTION    = 16.03590578
ECCENTRICITY   = .0001733
INCLINATION    = 42.9993
RA_OF_ASC_NODE = 92.9378
ARG_OF_PERICENTER = 282.8520
MEAN_ANOMALY   = 354.3540

EPHEMERIS_TYPE = 0
CLASSIFICATION_TYPE = U
NORAD_CAT_ID   = 68002
ELEMENT_SET_NO = 999
REV_AT_EPOCH   = 189
BSTAR          = -.17658E-2
MEAN_MOTION_DOT = -.1161132E-1
MEAN_MOTION_DDOT = .44809E-3

CCSDS_OMM_VERS = 2.0
CREATION_DATE  = 
ORIGINATOR     = 

OBJECT_NAME    = STARLINK-36862
OBJECT_ID      = 2026-039T
CENTER_NAME    = EARTH
REF_FRAME      = TEME
TIME_SYSTEM    = UTC
MEAN_ELEMENT_THEORY = SGP/SGP4

EPOCH          = 2026-03-03T14:00:03.000384
MEAN_MOTION    = 16.03807440
ECCENTRICITY   = .0001747
INCLINATION    = 42.9993
RA_OF_ASC_NODE = 92.9343
ARG_OF_PERICENTER = 281.1507
MEAN_ANOMALY   = 357.4698

EPHEMERIS_TYPE = 0
CLASSIFICATION_TYPE = U
NORAD_CAT_ID   = 68003
ELEMENT_SET_NO = 999
REV_AT_EPOCH   = 189
BSTAR          = -.17229E-2
MEAN_MOTION_DOT = -.1147998E-1
MEAN_MOTION_DDOT = .43996E-3

CCSDS_OMM_VERS = 2.0
CREATION_DATE  = 
ORIGINATOR     = 

OBJECT_NAME    = STARLINK-36888
OBJECT_ID      = 2026-039U
CENTER_NAME    = EARTH
REF_FRAME      = TEME
TIME_SYSTEM    = UTC
MEAN_ELEMENT_THEORY = SGP/SGP4

EPOCH          = 2026-03-03T14:00:03.000384
MEAN_MOTION    = 16.03456999
ECCENTRICITY   = .0001746
INCLINATION    = 42.9995
RA_OF_ASC_NODE = 92.9401
ARG_OF_PERICENTER = 279.5219
MEAN_ANOMALY   = 356.9165

EPHEMERIS_TYPE = 0
CLASSIFICATION_TYPE = U
NORAD_CAT_ID   = 68004
ELEMENT_SET_NO = 999
REV_AT_EPOCH   = 189
BSTAR          = -.17819E-2
MEAN_MOTION_DOT = -.11623E-1
MEAN_MOTION_DDOT = .44824E-3

CCSDS_OMM_VERS = 2.0
CREATION_DATE  = 
ORIGINATOR     = 

OBJECT_NAME    = STARLINK-36910
OBJECT_ID      = 2026-039V
CENTER_NAME    = EARTH
REF_FRAME      = TEME
TIME_SYSTEM    = UTC
MEAN_ELEMENT_THEORY = SGP/SGP4

EPOCH          = 2026-03-03T14:00:03.000384
MEAN_MOTION    = 16.03710471
ECCENTRICITY   = .0001782
INCLINATION    = 42.9993
RA_OF_ASC_NODE = 92.9361
ARG_OF_PERICENTER = 278.8511
MEAN_ANOMALY   = 359.0975

EPHEMERIS_TYPE = 0
CLASSIFICATION_TYPE = U
NORAD_CAT_ID   = 68005
ELEMENT_SET_NO = 999
REV_AT_EPOCH   = 189
BSTAR          = -.1742E-2
MEAN_MOTION_DOT = -.115386E-1
MEAN_MOTION_DDOT = .44358E-3

